{
    "bodies": [
        {
            "name": "TNO-46",
            "mass": 0,
            "semi_major_axis": 172.05479452054794,
            "eccentricity": 0.8063013698630137,
            "inclination": 0.027494912873883275,
            "longitude_of_ascending_node": 4.377291005773201,
            "argument_of_perihelion": 5.169470292117658,
            "mean_anomaly": 4.128335534219201
        },
        {
            "name": "TNO-47",
            "mass": 0,
            "semi_major_axis": 172.53424657534248,
            "eccentricity": 0.8064383561643836,
            "inclination": 0.028092628371141605,
            "longitude_of_ascending_node": 2.363198136754622,
            "argument_of_perihelion": 3.714928793247875,
            "mean_anomaly": 4.432068145139799
        },
        {
            "name": "TNO-48",
            "mass": 0,
            "semi_major_axis": 173.013698630137,
            "eccentricity": 0.8065753424657535,
            "inclination": 0.028690343868399935,
            "longitude_of_ascending_node": 2.1258278469968546,
            "argument_of_perihelion": 0.3163529696429658,
            "mean_anomaly": 3.2986803561780826
        },
        {
            "name": "TNO-49",
            "mass": 0,
            "semi_major_axis": 173.4931506849315,
            "eccentricity": 0.8067123287671233,
            "inclination": 0.02928805936565827,
            "longitude_of_ascending_node": 0.16507516327726007,
            "argument_of_perihelion": 4.559999538503193,
            "mean_anomaly": 5.7155496837550706
        },
        {
            "name": "TNO-50",
            "mass": 0,
            "semi_major_axis": 173.97260273972603,
            "eccentricity": 0.8068493150684932,
            "inclination": 0.0298857748629166,
            "longitude_of_ascending_node": 5.208775727962613,
            "argument_of_perihelion": 0.33933475188773066,
            "mean_anomaly": 5.019867583051976
        },
        {
            "name": "TNO-51",
            "mass": 0,
            "semi_major_axis": 174.45205479452054,
            "eccentricity": 0.806986301369863,
            "inclination": 0.030483490360174934,
            "longitude_of_ascending_node": 2.152204175741431,
            "argument_of_perihelion": 1.287897536234456,
            "mean_anomaly": 5.044617521658487
        },
        {
            "name": "TNO-52",
            "mass": 0,
            "semi_major_axis": 174.93150684931507,
            "eccentricity": 0.8071232876712329,
            "inclination": 0.031081205857433264,
            "longitude_of_ascending_node": 5.896449953218628,
            "argument_of_perihelion": 3.0565751265096615,
            "mean_anomaly": 0.8328367701061025
        },
        {
            "name": "TNO-53",
            "mass": 0,
            "semi_major_axis": 175.41095890410958,
            "eccentricity": 0.8072602739726028,
            "inclination": 0.031678921354691594,
            "longitude_of_ascending_node": 0.10144913010087202,
            "argument_of_perihelion": 0.23760834940704698,
            "mean_anomaly": 0.28229856238836676
        },
        {
            "name": "TNO-54",
            "mass": 0,
            "semi_major_axis": 175.8904109589041,
            "eccentricity": 0.8073972602739726,
            "inclination": 0.03227663685194993,
            "longitude_of_ascending_node": 5.612811087135331,
            "argument_of_perihelion": 4.338177815701664,
            "mean_anomaly": 1.4219862467592623
        },
        {
            "name": "TNO-55",
            "mass": 0,
            "semi_major_axis": 176.36986301369862,
            "eccentricity": 0.8075342465753426,
            "inclination": 0.03287435234920826,
            "longitude_of_ascending_node": 5.039685849340892,
            "argument_of_perihelion": 1.842275769385925,
            "mean_anomaly": 3.6854386527666563
        },
        {
            "name": "TNO-56",
            "mass": 0,
            "semi_major_axis": 176.84931506849315,
            "eccentricity": 0.8076712328767124,
            "inclination": 0.03347206784646659,
            "longitude_of_ascending_node": 5.462452192238603,
            "argument_of_perihelion": 4.67815846425246,
            "mean_anomaly": 2.040289247857563
        },
        {
            "name": "TNO-57",
            "mass": 0,
            "semi_major_axis": 177.32876712328766,
            "eccentricity": 0.8078082191780822,
            "inclination": 0.03406978334372492,
            "longitude_of_ascending_node": 2.785035523617831,
            "argument_of_perihelion": 1.3967061992885461,
            "mean_anomaly": 5.902783689310622
        },
        {
            "name": "TNO-58",
            "mass": 0,
            "semi_major_axis": 177.8082191780822,
            "eccentricity": 0.8079452054794521,
            "inclination": 0.03466749884098326,
            "longitude_of_ascending_node": 0.42056748141263717,
            "argument_of_perihelion": 1.8704600422380153,
            "mean_anomaly": 1.429224877658612
        },
        {
            "name": "TNO-59",
            "mass": 0,
            "semi_major_axis": 178.2876712328767,
            "eccentricity": 0.808082191780822,
            "inclination": 0.03526521433824159,
            "longitude_of_ascending_node": 6.049017779938622,
            "argument_of_perihelion": 6.099006780114698,
            "mean_anomaly": 2.3001409257962364
        },
        {
            "name": "TNO-60",
            "mass": 0,
            "semi_major_axis": 178.76712328767124,
            "eccentricity": 0.8082191780821918,
            "inclination": 0.03586292983549992,
            "longitude_of_ascending_node": 4.386718090870276,
            "argument_of_perihelion": 1.7872487757674516,
            "mean_anomaly": 5.235702479611444
        },
        {
            "name": "TNO-61",
            "mass": 0,
            "semi_major_axis": 179.24657534246575,
            "eccentricity": 0.8083561643835617,
            "inclination": 0.03646064533275825,
            "longitude_of_ascending_node": 0.7545969700577063,
            "argument_of_perihelion": 0.8011067064744667,
            "mean_anomaly": 3.166825436946084
        },
        {
            "name": "TNO-62",
            "mass": 0,
            "semi_major_axis": 179.72602739726028,
            "eccentricity": 0.8084931506849315,
            "inclination": 0.03705836083001659,
            "longitude_of_ascending_node": 2.128343114049594,
            "argument_of_perihelion": 3.7148357520090833,
            "mean_anomaly": 6.0156387954099575
        },
        {
            "name": "TNO-63",
            "mass": 0,
            "semi_major_axis": 180.2054794520548,
            "eccentricity": 0.8086301369863014,
            "inclination": 0.03765607632727492,
            "longitude_of_ascending_node": 2.6044530932266072,
            "argument_of_perihelion": 4.032049238969014,
            "mean_anomaly": 5.127166557666231
        },
        {
            "name": "TNO-64",
            "mass": 0,
            "semi_major_axis": 180.68493150684932,
            "eccentricity": 0.8087671232876713,
            "inclination": 0.03825379182453325,
            "longitude_of_ascending_node": 4.924917007689855,
            "argument_of_perihelion": 4.5764634461506715,
            "mean_anomaly": 5.46619087797397
        },
        {
            "name": "TNO-65",
            "mass": 0,
            "semi_major_axis": 181.16438356164383,
            "eccentricity": 0.8089041095890411,
            "inclination": 0.03885150732179158,
            "longitude_of_ascending_node": 6.0720256470598875,
            "argument_of_perihelion": 1.1197633943010896,
            "mean_anomaly": 4.000246367010844
        },
        {
            "name": "TNO-66",
            "mass": 0,
            "semi_major_axis": 181.64383561643837,
            "eccentricity": 0.809041095890411,
            "inclination": 0.03944922281904991,
            "longitude_of_ascending_node": 6.168912347680993,
            "argument_of_perihelion": 5.729177645568916,
            "mean_anomaly": 2.5749521583656456
        },
        {
            "name": "TNO-67",
            "mass": 0,
            "semi_major_axis": 182.12328767123287,
            "eccentricity": 0.8091780821917809,
            "inclination": 0.04004693831630825,
            "longitude_of_ascending_node": 0.8611067572489436,
            "argument_of_perihelion": 3.64615336091904,
            "mean_anomaly": 6.036690735506414
        },
        {
            "name": "TNO-68",
            "mass": 0,
            "semi_major_axis": 182.60273972602738,
            "eccentricity": 0.8093150684931507,
            "inclination": 0.04064465381356658,
            "longitude_of_ascending_node": 2.566085575520153,
            "argument_of_perihelion": 0.07721262170220848,
            "mean_anomaly": 5.152532077778154
        },
        {
            "name": "TNO-69",
            "mass": 0,
            "semi_major_axis": 183.08219178082192,
            "eccentricity": 0.8094520547945205,
            "inclination": 0.04124236931082491,
            "longitude_of_ascending_node": 3.2872412923267293,
            "argument_of_perihelion": 0.5252137181014146,
            "mean_anomaly": 1.6116282323932767
        },
        {
            "name": "TNO-70",
            "mass": 0,
            "semi_major_axis": 183.56164383561645,
            "eccentricity": 0.8095890410958905,
            "inclination": 0.04184008480808324,
            "longitude_of_ascending_node": 4.59647256750489,
            "argument_of_perihelion": 5.774165046246284,
            "mean_anomaly": 4.041848484174117
        }

    ]
}